[Satellite]
VERSION=1.1
NAME=RAPIDEYE 5
NICKNAME=RAPIDEYE 5
TLE1=1 33313U 08040B   15055.49369911  .00000779  00000-0  10981-3 0  9998
TLE2=2 33313  97.8669 142.6748 0019108  88.7858 271.5546 14.79883345350533
